[{"OBJECT_NAME":"STARLINK-32574","OBJECT_ID":"2024-209R","EPOCH":"2026-03-09T12:03:30.835008","MEAN_MOTION":15.30145109,"ECCENTRICITY":0.00013976,"INCLINATION":53.1579,"RA_OF_ASC_NODE":143.5983,"ARG_OF_PERICENTER":64.0304,"MEAN_ANOMALY":296.0841,"EPHEMERIS_TYPE":0,"CLASSIFICATION_TYPE":"U","NORAD_CAT_ID":61954,"ELEMENT_SET_NO":999,"REV_AT_EPOCH":7488,"BSTAR":0.0012954537,"MEAN_MOTION_DOT":0.0003814,"MEAN_MOTION_DDOT":0},{"OBJECT_NAME":"PSLV R\/B","OBJECT_ID":"2020-081L","EPOCH":"2026-03-09T11:07:47.822880","MEAN_MOTION":15.35733047,"ECCENTRICITY":0.00238531,"INCLINATION":36.845,"RA_OF_ASC_NODE":143.8276,"ARG_OF_PERICENTER":144.7418,"MEAN_ANOMALY":215.4916,"EPHEMERIS_TYPE":0,"CLASSIFICATION_TYPE":"U","NORAD_CAT_ID":46915,"ELEMENT_SET_NO":999,"REV_AT_EPOCH":29573,"BSTAR":0.00039539958,"MEAN_MOTION_DOT":0.00014147,"MEAN_MOTION_DDOT":0}]
